start=new Date('2021-11-28T00:00:00.000Z').valueOf();
sats=[{"REV_AT_EPOCH":"4484","MEAN_MOTION_DOT":"0.00001370","RCS_SIZE":"LARGE","MEAN_ELEMENT_THEORY":"SGP4","TLE_LINE1":"1 47590U 21009AU  21331.07466494  .00001370  00000-0  11088-3 0  9999","EPOCH":"2021-11-27T01:47:31.050816","ARG_OF_PERICENTER":"66.8932","PERIOD":"95.592","TLE_LINE2":"2 47590  53.0552 220.9554 0002052  66.8932 293.2273 15.06394747 44841","EPHEMERIS_TYPE":"0","PERIAPSIS":"545.809","CENTER_NAME":"EARTH","REF_FRAME":"TEME","APOAPSIS":"548.651","INCLINATION":"53.0552","OBJECT_ID":"2021-009AU","BSTAR":"0.00011088000000","OBJECT_TYPE":"PAYLOAD","TIME_SYSTEM":"UTC","OBJECT_NAME":"STARLINK-1995","SITE":"AFETR","MEAN_MOTION_DDOT":"0.0000000000000","LAUNCH_DATE":"2021-02-04","GP_ID":"190593389","ELEMENT_SET_NO":"999","ECCENTRICITY":"0.00020520","DECAY_DATE":null,"COUNTRY_CODE":"US","CLASSIFICATION_TYPE":"U","SEMIMAJOR_AXIS":"6925.365","MEAN_MOTION":"15.06394747","MEAN_ANOMALY":"293.2273","FILE":"3225405","RA_OF_ASC_NODE":"220.9554","NORAD_CAT_ID":"47590"},{"REF_FRAME":"TEME","APOAPSIS":"548.562","CENTER_NAME":"EARTH","PERIAPSIS":"545.894","EPHEMERIS_TYPE":"0","TLE_LINE2":"2 47591  53.0548 198.2392 0001926  77.6352 282.4852 15.06395326 45218","OBJECT_ID":"2021-009AV","INCLINATION":"53.0548","TLE_LINE1":"1 47591U 21009AV  21331.67732563 -.00000998  00000-0 -48105-4 0  9997","MEAN_ELEMENT_THEORY":"SGP4","RCS_SIZE":"LARGE","MEAN_MOTION_DOT":"-0.00000998","REV_AT_EPOCH":"4521","PERIOD":"95.592","ARG_OF_PERICENTER":"77.6352","EPOCH":"2021-11-27T16:15:20.934432","MEAN_ANOMALY":"282.4852","MEAN_MOTION":"15.06395326","SEMIMAJOR_AXIS":"6925.363","CLASSIFICATION_TYPE":"U","COUNTRY_CODE":"US","DECAY_DATE":null,"FILE":"3225675","RA_OF_ASC_NODE":"198.2392","NORAD_CAT_ID":"47591","SITE":"AFETR","TIME_SYSTEM":"UTC","OBJECT_NAME":"STARLINK-1996","OBJECT_TYPE":"PAYLOAD","BSTAR":"-0.00004810500000","ECCENTRICITY":"0.00019260","ELEMENT_SET_NO":"999","LAUNCH_DATE":"2021-02-04","GP_ID":"190622933","MEAN_MOTION_DDOT":"0.0000000000000"},{"INCLINATION":"53.0557","OBJECT_ID":"2021-009AW","TLE_LINE2":"2 47592  53.0557 218.1246 0002159  75.1901 284.9327 15.06404154 44933","EPHEMERIS_TYPE":"0","REF_FRAME":"TEME","APOAPSIS":"548.696","PERIAPSIS":"545.706","CENTER_NAME":"EARTH","EPOCH":"2021-11-27T17:00:26.893440","PERIOD":"95.592","ARG_OF_PERICENTER":"75.1901","MEAN_MOTION_DOT":"-0.00000549","REV_AT_EPOCH":"4493","MEAN_ELEMENT_THEORY":"SGP4","TLE_LINE1":"1 47592U 21009AW  21331.70864460 -.00000549  00000-0 -17949-4 0  9998","RCS_SIZE":"LARGE","FILE":"3225675","RA_OF_ASC_NODE":"218.1246","NORAD_CAT_ID":"47592","COUNTRY_CODE":"US","DECAY_DATE":null,"MEAN_MOTION":"15.06404154","MEAN_ANOMALY":"284.9327","SEMIMAJOR_AXIS":"6925.336","CLASSIFICATION_TYPE":"U","MEAN_MOTION_DDOT":"0.0000000000000","GP_ID":"190623691","LAUNCH_DATE":"2021-02-04","ECCENTRICITY":"0.00021590","ELEMENT_SET_NO":"999","BSTAR":"-0.00001794900000","OBJECT_TYPE":"PAYLOAD","SITE":"AFETR","OBJECT_NAME":"STARLINK-1997","TIME_SYSTEM":"UTC"},{"DECAY_DATE":null,"COUNTRY_CODE":"US","SEMIMAJOR_AXIS":"6925.327","CLASSIFICATION_TYPE":"U","MEAN_MOTION":"15.06406928","MEAN_ANOMALY":"286.7094","FILE":"3225675","RA_OF_ASC_NODE":"218.2536","NORAD_CAT_ID":"47593","BSTAR":"0.00022638000000","OBJECT_TYPE":"PAYLOAD","TIME_SYSTEM":"UTC","OBJECT_NAME":"STARLINK-1998","SITE":"AFETR","MEAN_MOTION_DDOT":"0.0000000000000","LAUNCH_DATE":"2021-02-04","GP_ID":"190622447","ELEMENT_SET_NO":"999","ECCENTRICITY":"0.00018700","TLE_LINE2":"2 47593  53.0523 218.2536 0001870  73.4100 286.7094 15.06406928 44933","EPHEMERIS_TYPE":"0","PERIAPSIS":"545.897","CENTER_NAME":"EARTH","REF_FRAME":"TEME","APOAPSIS":"548.487","INCLINATION":"53.0523","OBJECT_ID":"2021-009AX","REV_AT_EPOCH":"4493","MEAN_MOTION_DOT":"0.00003092","RCS_SIZE":"LARGE","MEAN_ELEMENT_THEORY":"SGP4","TLE_LINE1":"1 47593U 21009AX  21331.67916426  .00003092  00000-0  22638-3 0  9999","EPOCH":"2021-11-27T16:17:59.792064","PERIOD":"95.592","ARG_OF_PERICENTER":"73.4100"},{"NORAD_CAT_ID":"47594","FILE":"3225405","RA_OF_ASC_NODE":"220.7851","SEMIMAJOR_AXIS":"6925.343","CLASSIFICATION_TYPE":"U","MEAN_MOTION":"15.06401784","MEAN_ANOMALY":"292.9527","DECAY_DATE":null,"COUNTRY_CODE":"US","ELEMENT_SET_NO":"999","ECCENTRICITY":"0.00021400","MEAN_MOTION_DDOT":"0.0000000000000","GP_ID":"190592890","LAUNCH_DATE":"2021-02-04","TIME_SYSTEM":"UTC","OBJECT_NAME":"STARLINK-1999","SITE":"AFETR","BSTAR":"0.00008576300000","OBJECT_TYPE":"PAYLOAD","OBJECT_ID":"2021-009AY","INCLINATION":"53.0557","PERIAPSIS":"545.726","CENTER_NAME":"EARTH","APOAPSIS":"548.690","REF_FRAME":"TEME","TLE_LINE2":"2 47594  53.0557 220.7851 0002140  67.1687 292.9527 15.06401784 44845","EPHEMERIS_TYPE":"0","EPOCH":"2021-11-27T02:45:54.450720","PERIOD":"95.592","ARG_OF_PERICENTER":"67.1687","RCS_SIZE":"LARGE","MEAN_ELEMENT_THEORY":"SGP4","TLE_LINE1":"1 47594U 21009AY  21331.11521355  .00000996  00000-0  85763-4 0  9991","REV_AT_EPOCH":"4484","MEAN_MOTION_DOT":"0.00000996"},{"SITE":"AFETR","TIME_SYSTEM":"UTC","OBJECT_NAME":"STARLINK-2000","OBJECT_TYPE":"PAYLOAD","BSTAR":"0.00011885000000","ECCENTRICITY":"0.00021380","ELEMENT_SET_NO":"999","GP_ID":"190593648","LAUNCH_DATE":"2021-02-04","MEAN_MOTION_DDOT":"0.0000000000000","MEAN_ANOMALY":"288.8281","MEAN_MOTION":"15.06399555","SEMIMAJOR_AXIS":"6925.350","CLASSIFICATION_TYPE":"U","COUNTRY_CODE":"US","DECAY_DATE":null,"FILE":"3225405","NORAD_CAT_ID":"47595","RA_OF_ASC_NODE":"219.3632","TLE_LINE1":"1 47595U 21009AZ  21331.43221055  .00001489  00000-0  11885-3 0  9992","MEAN_ELEMENT_THEORY":"SGP4","RCS_SIZE":"LARGE","MEAN_MOTION_DOT":"0.00001489","REV_AT_EPOCH":"4489","ARG_OF_PERICENTER":"71.2939","PERIOD":"95.592","EPOCH":"2021-11-27T10:22:22.991520","REF_FRAME":"TEME","APOAPSIS":"548.696","CENTER_NAME":"EARTH","PERIAPSIS":"545.734","EPHEMERIS_TYPE":"0","TLE_LINE2":"2 47595  53.0546 219.3632 0002138  71.2939 288.8281 15.06399555 44896","OBJECT_ID":"2021-009AZ","INCLINATION":"53.0546"},{"FILE":"3225405","RA_OF_ASC_NODE":"221.4273","NORAD_CAT_ID":"47596","DECAY_DATE":null,"COUNTRY_CODE":"US","SEMIMAJOR_AXIS":"6925.356","CLASSIFICATION_TYPE":"U","MEAN_ANOMALY":"279.0689","MEAN_MOTION":"15.06397589","GP_ID":"190594391","LAUNCH_DATE":"2021-02-04","MEAN_MOTION_DDOT":"0.0000000000000","ELEMENT_SET_NO":"999","ECCENTRICITY":"0.00017020","OBJECT_TYPE":"PAYLOAD","BSTAR":"-0.00001479300000","TIME_SYSTEM":"UTC","OBJECT_NAME":"STARLINK-2001","SITE":"AFETR","INCLINATION":"53.0555","OBJECT_ID":"2021-009BA","EPHEMERIS_TYPE":"0","TLE_LINE2":"2 47596  53.0555 221.4273 0001702  81.0492 279.0689 15.06397589 44823","CENTER_NAME":"EARTH","PERIAPSIS":"546.042","APOAPSIS":"548.400","REF_FRAME":"TEME","ARG_OF_PERICENTER":"81.0492","PERIOD":"95.592","EPOCH":"2021-11-26T23:18:54.420480","REV_AT_EPOCH":"4482","MEAN_MOTION_DOT":"-0.00000502","RCS_SIZE":"LARGE","TLE_LINE1":"1 47596U 21009BA  21330.97146320 -.00000502  00000-0 -14793-4 0  9991","MEAN_ELEMENT_THEORY":"SGP4"},{"NORAD_CAT_ID":"47597","FILE":"3225675","RA_OF_ASC_NODE":"218.1889","SEMIMAJOR_AXIS":"6925.366","CLASSIFICATION_TYPE":"U","MEAN_ANOMALY":"284.6184","MEAN_MOTION":"15.06394395","DECAY_DATE":null,"COUNTRY_CODE":"US","ELEMENT_SET_NO":"999","ECCENTRICITY":"0.00021120","LAUNCH_DATE":"2021-02-04","GP_ID":"190621948","MEAN_MOTION_DDOT":"0.0000000000000","TIME_SYSTEM":"UTC","OBJECT_NAME":"STARLINK-2002","SITE":"AFETR","OBJECT_TYPE":"PAYLOAD","BSTAR":"0.00000627170000","OBJECT_ID":"2021-009BB","INCLINATION":"53.0557","CENTER_NAME":"EARTH","PERIAPSIS":"545.768","APOAPSIS":"548.693","REF_FRAME":"TEME","EPHEMERIS_TYPE":"0","TLE_LINE2":"2 47597  53.0557 218.1889 0002112  75.5039 284.6184 15.06394395 44939","PERIOD":"95.592","ARG_OF_PERICENTER":"75.5039","EPOCH":"2021-11-27T16:39:13.899168","RCS_SIZE":"LARGE","TLE_LINE1":"1 47597U 21009BB  21331.69391087 -.00000188  00000-0  62717-5 0  9993","MEAN_ELEMENT_THEORY":"SGP4","REV_AT_EPOCH":"4493","MEAN_MOTION_DOT":"-0.00000188"},{"FILE":"3225675","NORAD_CAT_ID":"47598","RA_OF_ASC_NODE":"187.2317","COUNTRY_CODE":"US","DECAY_DATE":null,"MEAN_MOTION":"15.06393249","MEAN_ANOMALY":"286.1563","SEMIMAJOR_AXIS":"6925.369","CLASSIFICATION_TYPE":"U","MEAN_MOTION_DDOT":"0.0000000000000","LAUNCH_DATE":"2021-02-04","GP_ID":"190622198","ECCENTRICITY":"0.00020380","ELEMENT_SET_NO":"999","BSTAR":"0.00009704900000","OBJECT_TYPE":"PAYLOAD","SITE":"AFETR","OBJECT_NAME":"STARLINK-2003","TIME_SYSTEM":"UTC","INCLINATION":"53.0586","OBJECT_ID":"2021-009BC","TLE_LINE2":"2 47598  53.0586 187.2317 0002038  73.9650 286.1563 15.06393249 45398","EPHEMERIS_TYPE":"0","APOAPSIS":"548.646","REF_FRAME":"TEME","PERIAPSIS":"545.823","CENTER_NAME":"EARTH","EPOCH":"2021-11-27T21:40:26.387616","PERIOD":"95.593","ARG_OF_PERICENTER":"73.9650","MEAN_MOTION_DOT":"0.00001164","REV_AT_EPOCH":"4539","MEAN_ELEMENT_THEORY":"SGP4","TLE_LINE1":"1 47598U 21009BC  21331.90308319  .00001164  00000-0  97049-4 0  9993","RCS_SIZE":"LARGE"},{"ARG_OF_PERICENTER":"77.3679","PERIOD":"95.592","EPOCH":"2021-11-27T16:39:13.424832","TLE_LINE1":"1 47599U 21009BD  21331.69390538  .00000866  00000-0  77049-4 0  9990","MEAN_ELEMENT_THEORY":"SGP4","RCS_SIZE":"LARGE","MEAN_MOTION_DOT":"0.00000866","REV_AT_EPOCH":"4549","OBJECT_ID":"2021-009BD","INCLINATION":"53.0553","APOAPSIS":"548.578","REF_FRAME":"TEME","CENTER_NAME":"EARTH","PERIAPSIS":"545.833","EPHEMERIS_TYPE":"0","TLE_LINE2":"2 47599  53.0553 178.1790 0001982  77.3679 282.7531 15.06402756 45495","ECCENTRICITY":"0.00019820","ELEMENT_SET_NO":"999","GP_ID":"190622934","LAUNCH_DATE":"2021-02-04","MEAN_MOTION_DDOT":"0.0000000000000","SITE":"AFETR","TIME_SYSTEM":"UTC","OBJECT_NAME":"STARLINK-2004","OBJECT_TYPE":"PAYLOAD","BSTAR":"0.00007704900000","FILE":"3225675","RA_OF_ASC_NODE":"178.1790","NORAD_CAT_ID":"47599","MEAN_ANOMALY":"282.7531","MEAN_MOTION":"15.06402756","CLASSIFICATION_TYPE":"U","SEMIMAJOR_AXIS":"6925.340","COUNTRY_CODE":"US","DECAY_DATE":null}];
